TIANLIAN 2-05           
1 63662U 25084A   25145.05817463  .00000130  00000+0  00000+0 0  9995
2 63662   5.4333 284.1709 0002323 166.2747 193.7463  1.00275005   493
CZ-3B R/B               
1 63663U 25084B   25144.26165659  .00043657 -11346-6  17438-2 0  9991
2 63663  27.2097  81.5929 7221446 195.9754 115.7699  2.39509498   639
STARLINK-11651 [DTC]    
1 63664U 25085A   25146.16668981  .00065799  00000+0  37872-3 0  9993
2 63664  42.9969 213.8982 0001531 260.7124 163.3123 15.77816880  4993
STARLINK-11672 [DTC]    
1 63665U 25085B   25145.83335648 -.00051610  00000+0 -29522-3 0  9990
2 63665  42.9967 215.8593 0001647 268.3221  87.7007 15.77876408  5579
STARLINK-11664 [DTC]    
1 63666U 25085C   25146.16668981  .00045693  00000+0  26431-3 0  9995
2 63666  42.9961 213.7605 0001657 256.1368 223.3838 15.77831606  4999
STARLINK-11666 [DTC]    
1 63667U 25085D   25146.16668981  .00056715  00000+0  32709-3 0  9998
2 63667  42.9968 213.6929 0001641 258.8561 248.4210 15.77822685  4902
STARLINK-11663 [DTC]    
1 63668U 25085E   25146.16668981  .00016886  00000+0  99731-4 0  9993
2 63668  42.9973 213.6242 0001634 272.5797 262.4357 15.77850709  5001
STARLINK-11595 [DTC]    
1 63669U 25085F   25146.16668981  .00013366  00000+0  79566-4 0  9998
2 63669  42.9977 213.5555 0001658 267.5301 295.2390 15.77850900  5647
STARLINK-11599 [DTC]    
1 63670U 25085G   25145.83335648 -.00064091  00000+0 -36781-3 0  9998
2 63670  42.9977 215.5165 0001810 268.2887 226.4930 15.77878011  4979
STARLINK-11603 [DTC]    
1 63671U 25085H   25145.83335648 -.00021072  00000+0 -11849-3 0  9999
2 63671  42.9980 215.4472 0001615 264.0196 258.5056 15.77861666  4977
STARLINK-11644 [DTC]    
1 63672U 25085J   25146.16668981  .00045028  00000+0  26048-3 0  9998
2 63672  42.9978 213.3474 0001496 265.5906  20.4293 15.77836067  5018
STARLINK-11634 [DTC]    
1 63673U 25085K   25146.16668981  .00044503  00000+0  25752-3 0  9997
2 63673  42.9978 213.2792 0001420 268.3153  45.4595 15.77833774  5017
STARLINK-11656 [DTC]    
1 63674U 25085L   25145.83335648 -.00046520  00000+0 -26568-3 0  9991
2 63674  42.9984 215.2417 0001751 282.4131 323.3609 15.77874822  4978
STARLINK-11655 [DTC]    
1 63675U 25085M   25145.83335648 -.00027266  00000+0 -15428-3 0  9991
2 63675  42.9981 215.1729 0001578 269.8080   3.7258 15.77861173  4985
STARLINK-11661 [DTC]    
1 63676U 25085N   25146.16668981  .00068751  00000+0  39544-3 0  9995
2 63676  42.9978 213.0733 0001436 267.4962 129.5342 15.77817431  5643
STARLINK-33816          
1 63677U 25085P   25146.16668981  .00034085  00000+0  82051-3 0  9990
2 63677  42.9993 217.0732 0001490 260.4836 314.3593 15.40665763  4973
STARLINK-33861          
1 63678U 25085Q   25145.83335648 -.00022590  00000+0 -53466-3 0  9993
2 63678  42.9998 218.9646 0001731 272.2450 263.9882 15.40724071  4882
STARLINK-33850          
1 63679U 25085R   25146.16668981  .00042153  00000+0  10118-2 0  9991
2 63679  42.9994 217.0126 0001364 265.2330 334.4875 15.40669781  4852
STARLINK-33887          
1 63680U 25085S   25145.83335648 -.00026670  00000+0 -63300-3 0  9997
2 63680  42.9998 218.9043 0001494 271.6667 289.4424 15.40718907  4948
STARLINK-33886          
1 63681U 25085T   25146.16668981  .00042783  00000+0  10269-2 0  9990
2 63681  42.9997 216.9527 0001539 258.3654   6.2320 15.40664594  4864
STARLINK-33840          
1 63682U 25085U   25146.16668981  .00063882  00000+0  15254-2 0  9993
2 63682  42.9999 216.8916 0001831 274.1184  15.2333 15.40666980  4862
STARLINK-33851          
1 63683U 25085V   25145.83335648 -.00032546  00000+0 -77461-3 0  9992
2 63683  42.9999 218.8428 0001518 278.2736 307.7178 15.40721337  4878
STARLINK-33853          
1 63684U 25085W   25145.83335648 -.00013777  00000+0 -32304-3 0  9995
2 63684  42.9998 218.7827 0001624 281.2769 329.6073 15.40708113  4883
STARLINK-33847          
1 63685U 25085X   25145.83335648 -.00015316  00000+0 -36004-3 0  9998
2 63685  42.9997 218.7221 0001703 271.8779   3.8846 15.40705698  4889
STARLINK-33880          
1 63686U 25085Y   25145.83335648 -.00008942  00000+0 -20678-3 0  9996
2 63686  42.9998 218.7522 0001949 287.4684 335.7295 15.40735654  4997
HULIANWANG DIGUI A      
1 63687U 25086A   25145.91985142  .00000062  00000+0  10718-3 0  9994
2 63687  86.5031  83.5662 0001902  85.4903 274.6450 13.26835356  3616
HULIANWANG DIGUI B      
1 63688U 25086B   25144.23156872 -.00373594  00000+0 -80582+0 0  9996
2 63688  86.5004  84.1276 0002141 150.0617 325.6441 13.31913176  3375
HULIANWANG DIGUI C      
1 63689U 25086C   25145.94150620  .00000062  00000+0  10174-3 0  9990
2 63689  86.5021  83.5123 0001509  66.0807 294.0488 13.29443585  3608
HULIANWANG DIGUI D      
1 63690U 25086D   25143.94069964 -.01051470  00000+0 -23251+1 0  9999
2 63690  86.5100  84.2162 0001815  85.1137  28.1061 13.31363921  3338
HULIANWANG DIGUI E      
1 63691U 25086E   25144.76133660 -.00678202  00000+0 -15274+1 0  9999
2 63691  86.5112  83.9426 0002652 144.8212 277.0315 13.29774131  3443
HULIANWANG DIGUI F      
1 63692U 25086F   25144.78301910 -.00977912  00000+0 -22337+1 0  9995
2 63692  86.5035  83.9223 0001811  89.1663   9.4460 13.28960960  3444
HULIANWANG DIGUI G      
1 63693U 25086G   25144.81916342  .00000082  00000+0  14201-3 0  9998
2 63693  86.4976  83.9166 0005620 127.6471 232.5177 13.30543670  3454
HULIANWANG DIGUI H      
1 63694U 25086H   25145.89841212  .00000055  00000+0  90725-4 0  9997
2 63694  86.5030  83.5502 0001494  58.2922 301.8359 13.26998375  3590
HULIANWANG DIGUI J      
1 63695U 25086J   25145.61044056  .00000072  00000+0  12663-3 0  9992
2 63695  86.4986  83.6517 0001451  90.3220 269.8082 13.27399209  3552
HULIANWANG DIGUI K      
1 63696U 25086K   25142.32315867  .00000111  00000+0  20388-3 0  9996
2 63696  86.5047  84.7690 0005796 320.8333 196.9369 13.30951807  3110
STARLINK-33894          
1 63697U 25087A   25146.16668981 -.01656131  00000+0 -37377-1 0  9998
2 63697  53.1593 121.1660 0001114  79.3467 251.1165 15.45961270  5094
STARLINK-33922          
1 63698U 25087B   25146.16668981 -.00036619  00000+0 -65305-3 0  9995
2 63698  53.1593 121.1489 0001095  91.3618 246.7836 15.49325753  5093
STARLINK-33919          
1 63699U 25087C   25146.16668981 -.00008335  00000+0 -14200-3 0  9998
2 63699  53.1592 121.1454 0000978  91.0609 249.0126 15.49301630  5097
STARLINK-33908          
1 63700U 25087D   25146.16668981 -.00026425  00000+0 -46849-3 0  9995
2 63700  53.1593 121.1418 0001086  90.4034 251.5774 15.49318999  5090
STARLINK-33950          
1 63701U 25087E   25146.16668981 -.01648099  00000+0 -34883-1 0  9997
2 63701  53.1593 121.1398 0000837  94.9935 247.7212 15.47786800  5092
STARLINK-33939          
1 63702U 25087F   25145.83335648  .00024970  00000+0  45576-3 0  9998
2 63702  53.1594 122.7264 0001019  94.9700 190.6175 15.49297429  4152
STARLINK-33868          
1 63703U 25087G   25145.83335648  .00019558  00000+0  35897-3 0  9990
2 63703  53.1593 122.7220 0001008  95.4088 192.1011 15.49297134  4325
STARLINK-33937          
1 63704U 25087H   25146.16668981 -.00004991  00000+0 -81753-4 0  9997
2 63704  53.1593 121.1225 0001103  92.9675 258.6041 15.49305432  5091
STARLINK-33848          
1 63705U 25087J   25145.83335648  .00042264  00000+0  76453-3 0  9995
2 63705  53.1593 122.7175 0000938  94.6848 194.7478 15.49283940  4327
STARLINK-33995          
1 63706U 25087K   25146.16668981 -.00008465  00000+0 -14430-3 0  9996
2 63706  53.1592 121.1173 0000965  88.4031 265.0815 15.49310693  5091
STARLINK-33982          
1 63707U 25087L   25145.83335648  .00028585  00000+0  52044-3 0  9997
2 63707  53.1593 122.7063 0000896  96.0306 199.1486 15.49291927  4336
STARLINK-33915          
1 63708U 25087M   25145.83335648  .00024349  00000+0  44467-3 0  9992
2 63708  53.1593 122.7015 0000984  98.1060 198.9880 15.49296843  4249
STARLINK-33862          
1 63709U 25087N   25145.83335648  .00027833  00000+0  50698-3 0  9997
2 63709  53.1593 122.6987 0000973  94.3142 204.6977 15.49293455  4309
STARLINK-33920          
1 63710U 25087P   25146.16668981 -.01665628  00000+0 -34447-1 0  9990
2 63710  53.1592 121.1031 0000977  79.7628 281.0084 15.48477992  5098
STARLINK-33580          
1 63711U 25087Q   25146.16668981 -.00002873  00000+0 -43612-4 0  9994
2 63711  53.1592 121.0972 0000956  87.2953 275.7724 15.49308761  5093
STARLINK-33783          
1 63712U 25087R   25146.16668981 -.00031276  00000+0 -55620-3 0  9995
2 63712  53.1592 121.0939 0000940  84.4019 280.5810 15.49325704  5098
STARLINK-33773          
1 63713U 25087S   25145.83335648  .00051575  00000+0  93019-3 0  9996
2 63713  53.1592 122.6819 0001032  95.2406 211.4419 15.49280246  4320
STARLINK-33745          
1 63714U 25087T   25145.83335648  .00071780  00000+0  12870-2 0  9992
2 63714  53.1592 122.6773 0000996 101.3500 207.1671 15.49305305  4328
STARLINK-33728          
1 63715U 25087U   25146.16668981 -.00018364  00000+0 -32285-3 0  9993
2 63715  53.1591 121.0491 0000821  96.5218 289.5518 15.49314757  5096
STARLINK-33749          
1 63716U 25087V   25145.83335648  .00046637  00000+0  84243-3 0  9991
2 63716  53.1591 122.6741 0000697  99.1904 211.3336 15.49280320  4328
STARLINK-33725          
1 63717U 25087W   25145.83335648  .00038745  00000+0  70173-3 0  9990
2 63717  53.1590 122.6450 0000795 102.1306 221.8036 15.49288620  4329
STARLINK-33641          
1 63718U 25087X   25146.16668981 -.00030133  00000+0 -53554-3 0  9996
2 63718  53.1593 121.0721 0000895  91.6489 282.9183 15.49323717  5095
STARLINK-33727          
1 63719U 25087Y   25146.16668981 -.01658886  00000+0 -39918-1 0  9995
2 63719  53.1591 121.0927 0000857  84.1867 280.3443 15.44108092  5090
STARLINK-33757          
1 63720U 25087Z   25145.83335648  .00042662  00000+0  77156-3 0  9995
2 63720  53.1591 122.6490 0000843 111.7419 210.2766 15.49286006  4242
